CUBEBEL-1 (BSUSAT-1)    
1 43666U 18083E   21184.52581521  .00001939  00000-0  94560-4 0  9990
2 43666  97.4540 212.6902 0016145 110.3395  47.2653 15.19412701148457
CICERO 10               
1 43690U 18088A   21184.49528370  .00001722  00000-0  75089-4 0  9996
2 43690  85.0376 187.0819 0014322   1.3242 358.8035 15.21294287146667
IRVINE01                
1 43693U 18088D   21184.49203451  .00005292  00000-0  20523-3 0  9997
2 43693  85.0340 184.2993 0014909 334.3269  25.7233 15.25763716146888
PROXIMA I               
1 43694U 18088E   21184.44713705  .00001875  00000-0  77725-4 0  9991
2 43694  85.0319 184.6858 0017212 327.9621  32.0574 15.23021988146817
PROXIMA II              
1 43696U 18088G   21184.44540322  .00001870  00000-0  77519-4 0  9992
2 43696  85.0320 184.6960 0017264 327.8989  32.1200 15.23019663146801
FACSAT-1                
1 43721U 18096C   21184.50339508  .00003067  00000-0  11133-3 0  9998
2 43721  97.3848 261.5204 0015963 209.0505 279.6019 15.28973197144570
CENTAURI-2              
1 43722U 18096D   21184.43841993  .00004255  00000-0  14812-3 0  9994
2 43722  97.3873 262.2861 0015688 207.7152 152.3255 15.30122773144605
INNOSAT-2               
1 43738U 18096V   21184.51546477  .00006073  00000-0  18768-3 0  9993
2 43738  97.3923 266.2354 0020584 209.4749 207.6426 15.33693308144863
SIRION PATHFINDER-2     
1 43759U 18099B   21184.45064790  .00000121  00000-0  16065-4 0  9992
2 43759  97.6634 254.6747 0013996 355.9980   4.1127 14.95535070140871
CORVUS BC4              
1 43767U 18099K   21184.46833681  .00000656  00000-0  65163-4 0  9991
2 43767  97.6608 253.6650 0011581   2.9542 357.1745 14.94959763140824
MOVE-II                 
1 43780U 18099Y   21184.46471493  .00001020  00000-0  95991-4 0  9993
2 43780  97.6659 254.8504 0013270   7.8527 352.2899 14.95961415140868
SPACEBEE-7              
1 43816U 18099BL  21184.13975743  .00001094  00000-0  10213-3 0  9998
2 43816  97.6676 255.1359 0012754 352.9410   7.1630 14.96158611140406
SPACEBEE-5              
1 43817U 18099BM  21184.46661078  .00001820  00000-0  16126-3 0  9994
2 43817  97.6763 256.7666 0012101 349.4590  10.6376 14.97414547140509
SPACEBEE-6              
1 43818U 18099BN  21184.23383803  .00000684  00000-0  65121-4 0  9994
2 43818  97.6708 255.6288 0012827 352.3622   7.7402 14.96544574140589
SHIELDS 1               
1 43850U 18104B   21184.56489334  .00000983  00000-0  41216-4 0  9990
2 43850  85.0298 283.2674 0016978 107.0302 253.2802 15.21919669141423
STF-1                   
1 43852U 18104D   21184.59267325  .00002092  00000-0  88232-4 0  9991
2 43852  85.0331 283.9150 0016269 119.4910 240.7957 15.22519786141412
ZACUBE-2                
1 43907U 18111AH  21184.53774688  .00000880  00000-0  37653-4 0  9993
2 43907  97.2308  78.1395 0019574 234.1975 246.1048 15.25236579140087
LUME 1                  
1 43908U 18111AJ  21184.58826425  .00001898  00000-0  75550-4 0  9994
2 43908  97.2320  78.7832 0018902 231.3820 128.5727 15.26302732140135
AOBA VELOX-IV           
1 43940U 19003J   21184.55375014  .00004611  00000-0  17344-3 0  9993
2 43940  97.1766 228.0362 0020812 315.3411  44.6151 15.27418342136763
UNITE                   
1 44031U 98067PX  21184.45698500  .00051376  00000-0  26875-3 0  9998
2 44031  51.6366 182.2986 0004022  40.9676 319.1627 15.80294304138206
RAAVANA-1               
1 44329U 98067QE  21184.43269160  .00061973  00000-0  33536-3 0  9998
2 44329  51.6338 202.4745 0006221   8.8416 351.2694 15.79456562116684
UGUISU                  
1 44330U 98067QF  21184.43689195  .00060217  00000-0  33592-3 0  9996
2 44330  51.6290 203.1485 0006291   6.3748 353.7332 15.78793874116652
NEPALISAT-1             
1 44331U 98067QG  21184.30306317  .00061919  00000-0  33700-3 0  9996
2 44331  51.6313 203.0087 0006192   7.6587 352.4507 15.79330006116656
SPOOQY-1                
1 44332U 98067QH  21184.52265413  .00056520  00000-0  32415-3 0  9996
2 44332  51.6320 203.0233 0005746  12.6911 347.4233 15.78207494116630
SPACEBEE-9              
1 44370U 19037F   21184.52900883  .00036363  00000-0  47223-3 0  9991
2 44370  44.9981 126.7768 0003648 310.9083  49.1496 15.58233241113694
MOVE-IIB                
1 44398U 19038N   21184.57204231  .00001841  00000-0  10535-3 0  9990
2 44398  97.5840 148.5040 0022552 254.0655 105.8087 15.13728170110206
SONATE                  
1 44400U 19038Q   21184.58877328  .00000658  00000-0  41337-4 0  9998
2 44400  97.5912 148.3835 0023309 254.6014 105.2639 15.12581419110171
LUCKY-7                 
1 44406U 19038W   21184.45593293  .00001114  00000-0  66615-4 0  9990
2 44406  97.5905 148.5090 0022526 252.8695 107.0069 15.12992338110161
BEESAT 9                
1 44412U 19038AC  21184.40553501  .00001483  00000-0  86645-4 0  9994
2 44412  97.5887 148.4886 0020436 258.7078 101.1857 15.13335801109869
JAISAT-1                
1 44419U 19038F   21184.43629797  .00001540  00000-0  88670-4 0  9999
2 44419  97.5891 149.0793 0019300 256.5807 103.3273 15.13820359110213
KRAKSAT                 
1 44427U 98067QM  21184.58312641  .00026183  00000-0  23410-3 0  9990
2 44427  51.6382 218.4015 0003410 325.9059 169.8656 15.68182511114005
VCC A                   
1 44428U 98067QN  21184.58668478  .00052373  00000-0  32221-3 0  9993
2 44428  51.6328 206.6026 0004521 358.5632   1.5355 15.76666236114165
ENTRYSAT                
1 44429U 98067QP  21184.52162228  .00167021  21380-4  52937-3 0  9991
2 44429  51.6241 194.6214 0006371  20.3670 339.7589 15.90873164114314
VCC B                   
1 44431U 98067QR  21184.53183885  .00057665  00000-0  34232-3 0  9999
2 44431  51.6305 206.1275 0004215 358.8899   1.2091 15.77435414114104
DUCHIFAT-3              
1 44854U 19089C   21184.50807168  .00000586  00000-0  53181-4 0  9994
2 44854  36.9684   5.6890 0009705 273.7661  86.2019 14.99524203 85518
EYESAT-NANO             
1 44877U 19092E   21184.50321004  .00002249  00000-0  11342-3 0  9993
2 44877  97.4611   7.9113 0014397 129.3433 230.9079 15.18085573 85376
ORBITAL FACTORY 2 (OF-2)
1 45113U 19071C   21184.54245264  .00003332  00000-0  10466-3 0  9991
2 45113  51.6427 319.4967 0011744 354.2255   5.8591 15.35896524 79645
M2 PATHFINDER           
1 45727U 20037E   21184.45314260  .00000646  00000-0  70134-4 0  9993
2 45727  97.7154   1.9234 0013977 112.2379 248.0357 14.91399180 54802
NETSAT-4                
1 46504U 20068U   21184.55433498  .00000647  00000-0  53722-4 0  9992
2 46504  97.6942 121.2747 0014132  74.7762 285.5046 15.02147600 41658
NETSAT-3                
1 46505U 20068V   21184.56160422  .00000929  00000-0  75265-4 0  9997
2 46505  97.6925 121.2451 0011643  81.2049 279.0518 15.02107753 41665
NETSAT-1                
1 46506U 20068W   21184.56853199  .00001348  00000-0  10729-3 0  9997
2 46506  97.6885 121.2188 0008506  88.4203 271.8010 15.02067864 41668
NETSAT-2                
1 46507U 20068X   21184.57238897  .00001433  00000-0  11381-3 0  9991
2 46507  97.6876 121.2211 0007238  89.0157 271.1908 15.02035529 41619
SPOC                    
1 46921U 98067RR  21184.46551725  .00010059  00000-0  15566-3 0  9994
2 46921  51.6413 256.1673 0001691 121.9561 238.1595 15.54716469 37344
BOBCAT-1                
1 46922U 98067RS  21184.46190240  .00014904  00000-0  21229-3 0  9992
2 46922  51.6420 254.6641 0001019 118.0630 242.0465 15.56557558 37321
NEUTRON-1               
1 46923U 98067RT  21184.48237082  .00009684  00000-0  15081-3 0  9999
2 46923  51.6412 256.2769 0001493 138.8691 221.2412 15.54588678 37387
1998-067RU              
1 46924U 98067RU  21184.58418494  .00028620  00000-0  34238-3 0  9995
2 46924  51.6392 250.9457 0000784 287.3398  72.7510 15.60744366 37435
DESCENT                 
1 46927U 98067RX  21184.48758748  .00009653  00000-0  15044-3 0  9995
2 46927  51.6410 256.3088 0001480 168.7816 191.3208 15.54573081 37293
SAI-1 NANOCONNECT-2     
1 47701U 21015C   21184.18775944 -.00000071  00000-0  00000-0 0  9998
2 47701  97.4535 258.6322 0011365 236.9107 123.1158 15.22721959 19011
WARP-01                 
1 47924U 98067SA  21184.46639035  .00012788  00000-0  21439-3 0  9996
2 47924  51.6417 260.6478 0004130 163.6758 196.4365 15.52197715 17284
RSP-01                  
1 47925U 98067SB  21184.46839256  .00010323  00000-0  17627-3 0  9991
2 47925  51.6423 260.6686 0002155  82.0159 278.1076 15.51926066 17260
TAUSAT-1                
1 47926U 98067SC  21184.49931431  .00012028  00000-0  19918-3 0  9992
2 47926  51.6414 260.1242 0003059  84.5521 275.5818 15.52611306 17262
TSURU                   
1 47927U 98067SD  21184.47464464  .00009278  00000-0  16031-3 0  9994
2 47927  51.6422 260.7098 0002278  82.2849 277.8399 15.51731999 17266
STARS-EC                
1 47928U 98067SE  21184.53581323  .00013905  00000-0  23329-3 0  9996
2 47928  51.6418 260.3622 0004680 169.1313 190.9779 15.52091041 17255
MAYA-2                  
1 47929U 98067SF  21184.47237775  .00009044  00000-0  15630-3 0  9994
2 47929  51.6422 260.6949 0002381  78.9399 281.1858 15.51761801 17228
HIROGARI (OPUSAT-II)    
1 47930U 98067SG  21184.58093276  .00013342  00000-0  22102-3 0  9992
2 47930  51.6420 259.9217 0002227  66.3628 293.7596 15.52492911 17280
GUARANISAT-1            
1 47931U 98067SH  21184.47142088  .00009497  00000-0  16366-3 0  9998
2 47931  51.6423 260.6893 0002417  78.9222 281.2039 15.51776163 17268
SMOG-1                  
1 47964U 21022AJ  21184.50003927  .00000937  00000-0  66370-4 0  9994
2 47964  97.5569  86.5316 0018155 249.3876 110.5405 15.07107668 14294
MMSATS-1                
1 47976U 98067SJ  21184.62471524  .00004080  00000-0  79474-4 0  9997
2 47976  51.6473 260.9390 0002748 140.0272 220.0920 15.49980891 16058
BCCSAT-1                
1 48041U 21022AK  21184.46930583  .00001550  00000-0  10875-3 0  9993
2 48041  97.5580  86.4342 0014538 245.6565 114.3145 15.06562473 14265
